GPS BIIA-23 (PRN 18)    
1 22877U 93068A   18144.39866198 -.00000046  00000-0  00000+0 0  9990
2 22877  54.4113  84.4806 0143363  74.5931  67.6286  2.00565477180072
GPS BIIR-2  (PRN 13)    
1 24876U 97035A   18144.09527240 -.00000003  00000-0  00000+0 0  9991
2 24876  55.4898 213.7128 0031541  90.5163 269.9063  2.00565065152664
GPS BIIR-3  (PRN 11)    
1 25933U 99055A   18144.47908262 -.00000089  00000-0  00000+0 0  9993
2 25933  51.8723  62.7234 0166344 101.1075 101.4705  2.00567628136490
GPS BIIR-4  (PRN 20)    
1 26360U 00025A   18144.32621376  .00000070  00000-0  00000+0 0  9998
2 26360  53.1953 140.6600 0040455 112.9365  41.4114  2.00426550132170
GPS BIIR-5  (PRN 28)    
1 26407U 00040A   18144.42868076 -.00000060  00000-0  00000+0 0  9998
2 26407  56.4931 331.8225 0196829 272.8928 280.3145  2.00563273130854
GPS BIIR-6  (PRN 14)    
1 26605U 00071A   18144.40311744  .00000004  00000-0  00000+0 0  9992
2 26605  55.0629 211.3017 0100892 248.6395 189.3898  2.00573470128454
GPS BIIR-8  (PRN 16)    
1 27663U 03005A   18144.46091833 -.00000060  00000-0  00000+0 0  9990
2 27663  56.5579 331.5778 0099247  28.3051 307.4880  2.00568408112228
GPS BIIR-9  (PRN 21)    
1 27704U 03010A   18144.33406146 -.00000046  00000-0  00000+0 0  9999
2 27704  54.0815  84.0772 0246615 270.7924 293.1570  2.00559881111028
GPS BIIR-10 (PRN 22)    
1 28129U 03058A   18144.28524688  .00000072  00000-0  00000+0 0  9997
2 28129  53.0082 143.5223 0076054 271.7700  87.3765  2.00547455105710
GPS BIIR-11 (PRN 19)    
1 28190U 04009A   18144.24459000 -.00000102  00000-0  00000+0 0  9998
2 28190  56.1626  32.4460 0096618  67.4572 260.4387  2.00559193103893
GPS BIIR-12 (PRN 23)    
1 28361U 04023A   18144.50430736  .00000015  00000-0  00000+0 0  9990
2 28361  54.0623 206.0617 0126673 225.3572 207.9072  2.00549102101984
GPS BIIR-13 (PRN 02)    
1 28474U 04045A   18144.30763360 -.00000047  00000-0  00000+0 0  9995
2 28474  54.4507  83.6824 0181272 253.8644  36.4194  2.00555429 99340
GPS BIIRM-1 (PRN 17)    
1 28874U 05038A   18144.17016899 -.00000101  00000-0  00000+0 0  9996
2 28874  56.3049  29.7561 0125753 258.4611  35.9565  2.00577022 92748
GPS BIIRM-2 (PRN 31)    
1 29486U 06042A   18144.40279616 -.00000067  00000-0  00000+0 0  9997
2 29486  55.1931 268.6213 0087787 351.1674  37.5534  2.00564713 85465
GPS BIIRM-3 (PRN 12)    
1 29601U 06052A   18143.80958619 -.00000056  00000-0  00000+0 0  9995
2 29601  56.5336 330.5204 0070052  55.1826 305.4889  2.00573988 84366
GPS BIIRM-4 (PRN 15)    
1 32260U 07047A   18143.62868347  .00000013  00000-0  00000-0 0  9996
2 32260  53.1868 202.1412 0101003  37.7847 322.9894  2.00554932 77752
GPS BIIRM-5 (PRN 29)    
1 32384U 07062A   18144.38499389 -.00000101  00000-0  00000+0 0  9998
2 32384  56.3783  30.3548 0005687  55.2268 265.3260  2.00561940 76487
GPS BIIRM-6 (PRN 07)    
1 32711U 08012A   18144.53762505 -.00000068  00000-0  00000+0 0  9990
2 32711  54.9265 267.9005 0117619 215.9256 143.2660  2.00564566 74671
GPS BIIRM-8 (PRN 05)    
1 35752U 09043A   18143.78013873  .00000077  00000-0  00000-0 0  9996
2 35752  54.3151 145.7008 0052343  32.8750 170.6482  2.00559314 64265
GPS BIIF-1  (PRN 25)    
1 36585U 10022A   18143.83944007 -.00000057  00000-0  00000-0 0  9997
2 36585  55.8256 327.0981 0073176  48.0391 300.3919  2.00567351 58499
GPS BIIF-2  (PRN 01)    
1 37753U 11036A   18143.83059392 -.00000032  00000-0  00000-0 0  9998
2 37753  55.6504  87.1995 0076553  34.6414  34.3397  2.00564094 50182
GPS BIIF-3  (PRN 24)    
1 38833U 12053A   18143.72151798 -.00000063  00000-0  00000-0 0  9993
2 38833  53.9566 264.5147 0068201  29.5890 330.7857  2.00566350 40453
GPS BIIF-4  (PRN 27)    
1 39166U 13023A   18143.57853564 -.00000099  00000-0  00000-0 0  9993
2 39166  56.0026  26.6834 0058522  21.9651 338.3211  2.00562780 36786
GPS BIIF-5  (PRN 30)    
1 39533U 14008A   18143.07900271 -.00000057  00000-0  00000+0 0  9991
2 39533  54.1026 269.8873 0034287 187.0675 172.8737  2.00555885 31124
GPS BIIF-6  (PRN 06)    
1 39741U 14026A   18143.85756348 -.00000033  00000-0  00000-0 0  9997
2 39741  55.6342  86.7212 0013847 293.8222  66.0052  2.00568748 29446
GPS BIIF-7  (PRN 09)    
1 40105U 14045A   18143.45164310  .00000006  00000-0  00000+0 0  9990
2 40105  54.5880 206.1959 0007275 111.6936 248.4501  2.00569559 27860
GPS BIIF-8  (PRN 03)    
1 40294U 14068A   18143.32144357  .00000078  00000-0  00000-0 0  9999
2 40294  55.0658 146.9667 0013025  15.1144 344.9477  2.00553949 26100
GPS BIIF-9  (PRN 26)    
1 40534U 15013A   18143.45777437 -.00000057  00000-0  00000-0 0  9990
2 40534  54.7681 325.8598 0027788   2.5004 357.5206  2.00565068 22725
GPS BIIF-10  (PRN 08)   
1 40730U 15033A   18143.62312110 -.00000100  00000-0  00000-0 0  9991
2 40730  55.5333  26.1989 0035870 331.6368  28.2047  2.00576013 20917
GPS BIIF-11  (PRN 10)   
1 41019U 15062A   18143.67125702  .00000079  00000-0  00000-0 0  9992
2 41019  55.0713 146.7547 0036293 206.1481 153.6916  2.00564293 18738
GPS BIIF-12  (PRN 32)   
1 41328U 16007A   18143.75876131  .00000008  00000-0  00000-0 0  9995
2 41328  54.8390 206.4669 0022582 217.9936 141.9136  2.00564109 16793
